UNKNOWN                 
1 81052U          25268.87221871  .00022369  00000+0  60756-2 0  9992
2 81052  65.7709 225.8690 0565840 345.2886  13.2275 13.81302914589552
UNKNOWN                 
1 81069U          25268.42456576  .00004881  00000+0  65465-2 0  9994
2 81069 100.3795 164.8630 0062447 241.9427 117.5386 13.59760779505286
UNKNOWN                 
1 81078U          25268.79069549  .00000377  00000+0  12505-1 0  9996
2 81078  65.1179  22.5250 0171894  23.8414 137.6591 11.22450321485878
UNKNOWN                 
1 81111U          25269.53990710  .00017334  00000+0  35687-2 0  9998
2 81111  62.8725  91.5983 3877780 354.2266   2.3838  7.52777063266122
UNKNOWN                 
1 81123U          25242.02668179  .00001363  00000+0  13311-2 0  9992
2 81123  99.9783 317.7926 0001323 358.5341   1.5806 13.81256551591827
UNKNOWN                 
1 81134U          25259.03154262  .00000097  00000+0  33135-3 0  9996
2 81134  90.2550   2.0283 0024901 257.4986 102.3346 12.92948225451274
UNKNOWN                 
1 81161U          25265.00395695  .00000740  00000+0  81454-3 0  9999
2 81161 100.4229  99.5132 0060379 128.0641 232.5973 13.75299048544892
UNKNOWN                 
1 81219U          25267.19489977  .00000911  00000+0  83683-3 0  9998
2 81219  82.9233  65.8817 0022121  80.9165 279.4496 13.81678396596533
UNKNOWN                 
1 81228U          25269.23079307  .00012551  00000+0  39489-2 0  9994
2 81228  70.5203  90.4611 0062907 120.5695 240.1664 14.39391139614932
UNKNOWN                 
1 81254U          25244.40832738  .00005090  00000+0  33806-2 0  9997
2 81254 100.3984 292.5339 0071599 341.3204  18.5331 14.00620810598564
UNKNOWN                 
1 81279U          25269.46636266  .00002061  00000+0  80395-3 0  9996
2 81279  98.1395 335.0755 0207163 251.2418 106.6182 14.19623817451639
UNKNOWN                 
1 81301U          25269.36039115  .00000268  00000+0  33703-3 0  9999
2 81301  66.7571 120.6823 0095577 280.9867 262.3273 13.76635661595707
UNKNOWN                 
1 81311U          25265.91469697  .00001079  00000+0  22795-3 0  9999
2 81311  98.7451 319.3259 0131964  12.0624 167.7339 14.56343664627824
UNKNOWN                 
1 81317U          25265.55358201  .00000078  00000+0  23827-3 0  9998
2 81317  67.1400 355.3696 0206011  92.3438 289.5972 13.37961175577774
UNKNOWN                 
1 81323U          25266.23724836  .00044412  00000+0  61914-2 0  9990
2 81323  65.7520 253.5731 0352076 355.6749   4.1322 14.42906774101426
UNKNOWN                 
1 81329U          25264.52832753  .00001297  00000+0  50762-3 0  9998
2 81329  65.8233 318.0956 0828604  67.5756 301.0879 13.21598809567213
UNKNOWN                 
1 81341U          25267.13292417 -.00006137  00000+0 -14825-1 0  9997
2 81341  99.4898 220.3844 0394007 332.8378  25.2594 12.96935293513102
UNKNOWN                 
1 81343U          25269.34675748  .00011693  00000+0  88272-3 0  9996
2 81343  85.8713 240.6585 0009490 163.3535 196.8011 15.02270850442692
UNKNOWN                 
1 81359U          25269.20742293  .00001611  00000+0  15864-2 0  9993
2 81359  66.7991 237.5288 0110159  14.7878 345.6372 13.78631416594797
UNKNOWN                 
1 81366U          25266.70660654  .00001046  00000+0  40001-3 0  9997
2 81366  65.8813 261.3340 0712099 120.7653 246.5497 13.44870362 55193
UNKNOWN                 
1 81371U          25263.51627473  .00004001  00000+0  66372-3 0  9994
2 81371  98.8171 353.3275 0070718 263.1784  96.1369 14.69205016629610
UNKNOWN                 
1 81386U          25268.45136100  .00007884  00000+0  26582-2 0  9990
2 81386  71.0479 166.1993 0092620 211.2524 148.3084 14.34839990613005
UNKNOWN                 
1 81390U          25264.40051300 -.00000395  00000+0 -25780-2 0  9995
2 81390 103.1059 147.6348 0177415 291.3356  66.8847 12.35701060489925
UNKNOWN                 
1 81392U          25264.72718586  .00003809  00000+0  36402-2 0  9992
2 81392 100.3899 244.7639 0036195 250.6543 288.3457 13.80930029590858
UNKNOWN                 
1 81405U          25260.95943168  .00001222  00000+0  95025-3 0  9998
2 81405  99.4774 307.7571 0161448  93.5372 268.4265 13.88498754549898
UNKNOWN                 
1 81406U          25264.82851167  .00001727  00000+0  73005-3 0  9990
2 81406  65.8133 339.0293 0863549 355.9859   3.4531 13.11502239522939
UNKNOWN                 
1 81427U          25269.12324243  .00001480  00000+0  88798-3 0  9992
2 81427  98.7545 153.7435 0083981 257.1579 102.0198 14.06739892540857
UNKNOWN                 
1 81438U          25264.08561712  .00002713  00000+0  40337-2 0  9994
2 81438 100.3039 132.3184 0053030 287.9232  71.6125 13.54058480580753
UNKNOWN                 
1 81439U          25269.33504636  .00000530  00000+0  15833-2 0  9998
2 81439  67.1594 291.4939 0609521 250.6657 102.7512 12.62586098252127
UNKNOWN                 
1 81449U          25268.85963872  .00080051  00000+0  85076-2 0  9998
2 81449  66.7954 216.4583 0034125 205.6429 154.3009 14.88064744621925
UNKNOWN                 
1 81478U          25266.72508441  .00006687  00000+0  24566-2 0  9991
2 81478  98.9463 176.6700 0145791 230.2035 188.6963 14.27299112611522
UNKNOWN                 
1 81488U          25268.14537902  .00000588  00000+0  89419-3 0  9997
2 81488 100.0120 139.6050 0043582 193.5483 319.8269 13.56461008585970
UNKNOWN                 
1 81497U          25265.45501946  .00005200  00000+0  47680-2 0  9996
2 81497 100.3013 152.4357 0026475 226.1767 314.5658 13.83267501205051
UNKNOWN                 
1 81499U          25269.26074766  .00005362  00000+0  14974-2 0  9995
2 81499  74.0521   5.6941 0000311  84.5634 275.5559 14.46450140471214
UNKNOWN                 
1 81535U          25268.69863926  .00001365  00000+0  57724-3 0  9996
2 81535  98.2051 357.3015 0235986  14.8064 345.9867 14.13117571376378
UNKNOWN                 
1 81536U          25266.38488387  .00000650  00000+0  42389-2 0  9991
2 81536 101.9562 126.5389 0027163  48.9621 126.2734 12.55727138541727
UNKNOWN                 
1 81537U          25263.78662500  .00000399  00000+0  25930-3 0  9998
2 81537  71.0375 280.8559 0079994 277.3937  81.8096 14.07003011608791
UNKNOWN                 
1 81552U          25261.30961254  .00000995  00000+0  22327-2 0  9997
2 81552  99.0586 199.7667 0255850 222.8303 135.2631 13.17937176567992
UNKNOWN                 
1 81599U          25266.26908839  .00000099  00000+0  28284-3 0  9992
2 81599  67.2927  95.0180 0251376 143.2776  33.8096 13.31316587574366
UNKNOWN                 
1 81605U          25265.75272391  .00000390  00000+0  20084-2 0  9993
2 81605  56.4307  82.9375 0169064  26.5263 334.4195 12.81130588175820
UNKNOWN                 
1 81614U          25269.26208707  .00006612  00000+0  41487-1 0  9995
2 81614 101.8547 267.5381 0369505 298.0104  58.4039 12.36130495528404
UNKNOWN                 
1 81615U          25266.35028752  .00001881  00000+0  66949-3 0  9998
2 81615  65.8240 249.3892 0780643 174.0511 187.0514 13.33487428572140
UNKNOWN                 
1 81617U          25269.45850583  .00000482  00000+0  31158-2 0  9998
2 81617 101.2617  87.2812 0036320  28.3377 331.9665 12.57453775543398
UNKNOWN                 
1 81624U          25265.61760420  .00010516  00000+0  17160-2 0  9996
2 81624  66.9793  30.7760 0074283 298.2760  61.0877 14.69389918627781
UNKNOWN                 
1 81640U          25266.35330820  .00000322  00000+0  35179-3 0  9998
2 81640  65.8259 296.1899 0976641 110.6919 260.1463 12.57130350499977
UNKNOWN                 
1 81652U          25266.39800635  .00000858  00000+0  10611-2 0  9998
2 81652 102.1532 138.2267 0364967 179.3743 358.4031 13.44202738567855
UNKNOWN                 
1 81667U          25269.46757805  .00004866  00000+0  13340-2 0  9990
2 81667  74.0414 181.0773 0014570 140.2853 219.9375 14.47304648445467
UNKNOWN                 
1 81674U          25268.25926203  .00001894  00000+0  11192-2 0  9995
2 81674  66.8225 201.8417 0034374 275.0023 236.6869 14.09630998602658
UNKNOWN                 
1 81683U          25269.55550946  .00008813  00000+0  19684-2 0  9998
2 81683  81.2200  16.7152 0025778 172.4600 187.6989 14.56509070624627
UNKNOWN                 
1 81693U          25267.45991096  .00002197  00000+0  15811-1 0  9997
2 81693 101.0852 337.6251 0383333 232.0276 124.5574 12.25799626958052
UNKNOWN                 
1 81745U          25265.58104326  .00004648  00000+0  14994-2 0  9994
2 81745  71.0011 205.0672 0007040 318.4001  41.6598 14.39670620618069
UNKNOWN                 
1 81749U          25244.37710831  .00000093  00000+0  43035-3 0  9995
2 81749  99.6985 288.8531 0370798  74.5755 352.5377 12.77568823548939
UNKNOWN                 
1 81775U          25268.49449547  .00009744  00000+0  31295-2 0  9992
2 81775  82.9181 289.0612 0021133 127.7047 232.6065 14.39199402614013
UNKNOWN                 
1 81792U          25265.31716442  .00003442  00000+0  12360-2 0  9991
2 81792  65.8234 278.7778 0896718 318.2574  35.3262 13.10372646 69360
UNKNOWN                 
1 81812U          25268.65590603  .00006748  00000+0  41455-1 0  9991
2 81812 103.8113 170.1833 0373664   5.8335 354.6903 12.37340470530903
UNKNOWN                 
1 81816U          25267.33583631  .00001153  00000+0  89190-3 0  9997
2 81816  66.2373 134.0421 0179976 290.0551  68.1229 13.89107624598314
UNKNOWN                 
1 81819U          25262.21917438  .00000438  00000+0  32886-2 0  9992
2 81819 102.1739 358.2188 0034824 269.9972  89.7105 12.47462451537474
UNKNOWN                 
1 81824U          25268.76553972  .00010294  00000+0  36733-2 0  9999
2 81824  65.8439 189.9782 0033052   6.2998 353.8504 14.34166290613409
UNKNOWN                 
1 81833U          25265.52349980  .00000155  00000+0  53669-3 0  9995
2 81833  90.2466   1.1150 0026820 231.5212 128.3501 12.93680004442018
